[{"OBJECT_NAME":"STARLINK-2672","OBJECT_ID":"2021-044N","EPOCH":"2026-03-09T10:42:01.252512","MEAN_MOTION":15.30208377,"ECCENTRICITY":0.00012776,"INCLINATION":53.1622,"RA_OF_ASC_NODE":115.0749,"ARG_OF_PERICENTER":98.077,"MEAN_ANOMALY":262.0376,"EPHEMERIS_TYPE":0,"CLASSIFICATION_TYPE":"U","NORAD_CAT_ID":48650,"ELEMENT_SET_NO":999,"REV_AT_EPOCH":26378,"BSTAR":0.00010744467,"MEAN_MOTION_DOT":2.825e-5,"MEAN_MOTION_DDOT":0},{"OBJECT_NAME":"JILIN-1 GAOFEN 03D48","OBJECT_ID":"2022-167P","EPOCH":"2026-03-09T23:48:37.804608","MEAN_MOTION":15.32947339,"ECCENTRICITY":0.00075954,"INCLINATION":97.6781,"RA_OF_ASC_NODE":234.4968,"ARG_OF_PERICENTER":111.3084,"MEAN_ANOMALY":248.8969,"EPHEMERIS_TYPE":0,"CLASSIFICATION_TYPE":"U","NORAD_CAT_ID":54695,"ELEMENT_SET_NO":999,"REV_AT_EPOCH":18018,"BSTAR":0.00049677114,"MEAN_MOTION_DOT":0.00015755,"MEAN_MOTION_DDOT":0}]
